<?xml version="1.0"?>
<gpx version="1.1" creator="Route Controller - L1 to L2">
  <wpt lat="37.3835546" lon="-122.1371287"><name>L1</name><time>2026-01-01T12:00:00Z</time></wpt>
  <wpt lat="37.3834" lon="-122.13682"><time>2026-01-01T12:00:03.086Z</time></wpt>
  <wpt lat="37.38362" lon="-122.13617"><time>2026-01-01T12:00:12.347Z</time></wpt>
  <wpt lat="37.3836313" lon="-122.1357671"><time>2026-01-01T12:00:15.434Z</time></wpt>
  <wpt lat="37.3825769" lon="-122.1359468"><time>2026-01-01T12:00:32.413Z</time></wpt>
  <wpt lat="37.3823" lon="-122.12964"><time>2026-01-01T12:01:43.413Z</time></wpt>
  <wpt lat="37.3819" lon="-122.12815"><time>2026-01-01T12:02:01.934Z</time></wpt>
  <wpt lat="37.38187" lon="-122.12666"><time>2026-01-01T12:02:20.456Z</time></wpt>
  <wpt lat="37.38171" lon="-122.12639"><time>2026-01-01T12:02:23.543Z</time></wpt>
  <wpt lat="37.38115" lon="-122.12629"><time>2026-01-01T12:02:31.260Z</time></wpt>
  <wpt lat="37.38044" lon="-122.12454"><time>2026-01-01T12:02:54.413Z</time></wpt>
  <wpt lat="37.38117" lon="-122.12352"><time>2026-01-01T12:03:11.391Z</time></wpt>
  <wpt lat="37.38133" lon="-122.1231"><time>2026-01-01T12:03:16.021Z</time></wpt>
  <wpt lat="37.38132" lon="-122.12166"><time>2026-01-01T12:03:31.456Z</time></wpt>
  <wpt lat="37.38105" lon="-122.12117"><time>2026-01-01T12:03:40.717Z</time></wpt>
  <wpt lat="37.37046" lon="-122.11074"><time>2026-01-01T12:06:55.195Z</time></wpt>
  <wpt lat="37.3740937" lon="-122.1075898"><time>2026-01-01T12:08:00.021Z</time></wpt>
  <wpt lat="37.37373" lon="-122.10635"><time>2026-01-01T12:08:15.456Z</time></wpt>
  <wpt lat="37.37377" lon="-122.0961"><time>2026-01-01T12:10:14.304Z</time></wpt>
  <wpt lat="37.37339" lon="-122.09533"><time>2026-01-01T12:10:17.804Z</time></wpt>
  <wpt lat="37.37331" lon="-122.08777"><time>2026-01-01T12:10:45.304Z</time></wpt>
  <wpt lat="37.37365" lon="-122.08671"><time>2026-01-01T12:10:49.304Z</time></wpt>
  <wpt lat="37.37345" lon="-122.07775"><time>2026-01-01T12:11:23.304Z</time></wpt>
  <wpt lat="37.37422" lon="-122.07764"><time>2026-01-01T12:11:27.304Z</time></wpt>
  <wpt lat="37.37487" lon="-122.07725"><time>2026-01-01T12:11:30.804Z</time></wpt>
  <wpt lat="37.38199" lon="-122.07155"><time>2026-01-01T12:12:09.804Z</time></wpt>
  <wpt lat="37.38293" lon="-122.07044"><time>2026-01-01T12:12:16.304Z</time></wpt>
  <wpt lat="37.38502" lon="-122.06649"><time>2026-01-01T12:12:34.304Z</time></wpt>
  <wpt lat="37.38543" lon="-122.06543"><time>2026-01-01T12:12:38.304Z</time></wpt>
  <wpt lat="37.38574" lon="-122.06393"><time>2026-01-01T12:12:43.804Z</time></wpt>
  <wpt lat="37.38594" lon="-122.06082"><time>2026-01-01T12:12:56.304Z</time></wpt>
  <wpt lat="37.38621" lon="-122.0598"><time>2026-01-01T12:12:59.804Z</time></wpt>
  <wpt lat="37.38659" lon="-122.05896"><time>2026-01-01T12:13:03.804Z</time></wpt>
  <wpt lat="37.3961" lon="-122.04443"><time>2026-01-01T12:14:13.804Z</time></wpt>
  <wpt lat="37.4022211" lon="-122.0303808"><time>2026-01-01T12:15:13.804Z</time></wpt>
  <wpt lat="37.40218" lon="-122.03019"><time>2026-01-01T12:15:14.804Z</time></wpt>
  <wpt lat="37.40277" lon="-122.02719"><time>2026-01-01T12:15:26.804Z</time></wpt>
  <wpt lat="37.40272" lon="-122.02688"><time>2026-01-01T12:15:28.347Z</time></wpt>
  <wpt lat="37.40287" lon="-122.02662"><time>2026-01-01T12:15:32.978Z</time></wpt>
  <wpt lat="37.4049" lon="-122.02606"><time>2026-01-01T12:16:02.304Z</time></wpt>
  <wpt lat="37.40563" lon="-122.026"><time>2026-01-01T12:16:14.652Z</time></wpt>
  <wpt lat="37.40628" lon="-122.02608"><time>2026-01-01T12:16:23.913Z</time></wpt>
  <wpt lat="37.40803" lon="-122.02684"><time>2026-01-01T12:16:50.152Z</time></wpt>
  <wpt lat="37.40881" lon="-122.02691"><time>2026-01-01T12:17:00.956Z</time></wpt>
  <wpt lat="37.41436" lon="-122.02516"><time>2026-01-01T12:18:24.304Z</time></wpt>
  <wpt lat="37.4144" lon="-122.02534"><time>2026-01-01T12:18:25.847Z</time></wpt>
  <wpt lat="37.4142952" lon="-122.0253693"><time>2026-01-01T12:18:27.391Z</time></wpt>
  <wpt lat="37.41584954048625" lon="-122.03492834466675"><name>L2</name><time>2026-01-01T12:20:00Z</time></wpt>
</gpx>
