<?xml version='1.0' encoding='utf-8'?>
<gpx version="1.1" creator="Xcode">
    <wpt lat="37.3835546" lon="-122.1371287"><name>L1</name><time>2026-01-01T12:00:00Z</time></wpt>
    <wpt lat="37.3834" lon="-122.13682"><time>2026-01-01T12:00:02Z</time></wpt>
    <wpt lat="37.38362" lon="-122.13617"><time>2026-01-01T12:00:07Z</time></wpt>
    <wpt lat="37.3836313" lon="-122.1357671"><time>2026-01-01T12:00:09Z</time></wpt>
    <wpt lat="37.3825769" lon="-122.1359468"><time>2026-01-01T12:00:19Z</time></wpt>
    <wpt lat="37.3823" lon="-122.12964"><time>2026-01-01T12:01:00Z</time></wpt>
    <wpt lat="37.3819" lon="-122.12815"><time>2026-01-01T12:01:11Z</time></wpt>
    <wpt lat="37.38187" lon="-122.12666"><time>2026-01-01T12:01:21Z</time></wpt>
    <wpt lat="37.38171" lon="-122.12639"><time>2026-01-01T12:01:23Z</time></wpt>
    <wpt lat="37.38115" lon="-122.12629"><time>2026-01-01T12:01:28Z</time></wpt>
    <wpt lat="37.38044" lon="-122.12454"><time>2026-01-01T12:01:41Z</time></wpt>
    <wpt lat="37.38117" lon="-122.12352"><time>2026-01-01T12:01:51Z</time></wpt>
    <wpt lat="37.38133" lon="-122.1231"><time>2026-01-01T12:01:54Z</time></wpt>
    <wpt lat="37.38132" lon="-122.12166"><time>2026-01-01T12:02:03Z</time></wpt>
    <wpt lat="37.38105" lon="-122.12117"><time>2026-01-01T12:02:08Z</time></wpt>
    <wpt lat="37.37046" lon="-122.11074"><time>2026-01-01T12:04:01Z</time></wpt>
    <wpt lat="37.3740937" lon="-122.1075898"><time>2026-01-01T12:04:38Z</time></wpt>
    <wpt lat="37.37373" lon="-122.10635"><time>2026-01-01T12:04:47Z</time></wpt>
    <wpt lat="37.37377" lon="-122.0961"><time>2026-01-01T12:05:56Z</time></wpt>
    <wpt lat="37.37339" lon="-122.09533"><time>2026-01-01T12:06:02Z</time></wpt>
    <wpt lat="37.37331" lon="-122.08777"><time>2026-01-01T12:06:52Z</time></wpt>
    <wpt lat="37.37365" lon="-122.08671"><time>2026-01-01T12:06:59Z</time></wpt>
    <wpt lat="37.37345" lon="-122.07775"><time>2026-01-01T12:08:00Z</time></wpt>
    <wpt lat="37.37422" lon="-122.07764"><time>2026-01-01T12:08:07Z</time></wpt>
    <wpt lat="37.37487" lon="-122.07725"><time>2026-01-01T12:08:13Z</time></wpt>
    <wpt lat="37.38199" lon="-122.07155"><time>2026-01-01T12:09:23Z</time></wpt>
    <wpt lat="37.38293" lon="-122.07044"><time>2026-01-01T12:09:34Z</time></wpt>
    <wpt lat="37.38502" lon="-122.06649"><time>2026-01-01T12:10:07Z</time></wpt>
    <wpt lat="37.38543" lon="-122.06543"><time>2026-01-01T12:10:14Z</time></wpt>
    <wpt lat="37.38574" lon="-122.06393"><time>2026-01-01T12:10:24Z</time></wpt>
    <wpt lat="37.38594" lon="-122.06082"><time>2026-01-01T12:10:46Z</time></wpt>
    <wpt lat="37.38621" lon="-122.0598"><time>2026-01-01T12:10:52Z</time></wpt>
    <wpt lat="37.38659" lon="-122.05896"><time>2026-01-01T12:10:59Z</time></wpt>
    <wpt lat="37.3961" lon="-122.04443"><time>2026-01-01T12:13:05Z</time></wpt>
    <wpt lat="37.4022211" lon="-122.0303808"><time>2026-01-01T12:14:52Z</time></wpt>
    <wpt lat="37.40218" lon="-122.03019"><time>2026-01-01T12:14:54Z</time></wpt>
    <wpt lat="37.40277" lon="-122.02719"><time>2026-01-01T12:15:15Z</time></wpt>
    <wpt lat="37.40272" lon="-122.02688"><time>2026-01-01T12:15:16Z</time></wpt>
    <wpt lat="37.40287" lon="-122.02662"><time>2026-01-01T12:15:19Z</time></wpt>
    <wpt lat="37.4049" lon="-122.02606"><time>2026-01-01T12:15:36Z</time></wpt>
    <wpt lat="37.40563" lon="-122.026"><time>2026-01-01T12:15:43Z</time></wpt>
    <wpt lat="37.40628" lon="-122.02608"><time>2026-01-01T12:15:48Z</time></wpt>
    <wpt lat="37.40803" lon="-122.02684"><time>2026-01-01T12:16:04Z</time></wpt>
    <wpt lat="37.40881" lon="-122.02691"><time>2026-01-01T12:16:10Z</time></wpt>
    <wpt lat="37.41436" lon="-122.02516"><time>2026-01-01T12:16:58Z</time></wpt>
    <wpt lat="37.4144" lon="-122.02534"><time>2026-01-01T12:16:59Z</time></wpt>
    <wpt lat="37.4142952" lon="-122.0253693"><time>2026-01-01T12:17:00Z</time></wpt>
    <wpt lat="37.41584954048625" lon="-122.03492834466675"><name>L2</name><time>2026-01-01T12:20:00Z</time></wpt>
    <wpt lat="37.4144" lon="-122.02534"><time>2026-01-01T12:23:00Z</time></wpt>
    <wpt lat="37.41436" lon="-122.02516"><time>2026-01-01T12:23:01Z</time></wpt>
    <wpt lat="37.40881" lon="-122.02691"><time>2026-01-01T12:23:49Z</time></wpt>
    <wpt lat="37.40803" lon="-122.02684"><time>2026-01-01T12:23:55Z</time></wpt>
    <wpt lat="37.40628" lon="-122.02608"><time>2026-01-01T12:24:11Z</time></wpt>
    <wpt lat="37.40563" lon="-122.026"><time>2026-01-01T12:24:17Z</time></wpt>
    <wpt lat="37.4049" lon="-122.02606"><time>2026-01-01T12:24:23Z</time></wpt>
    <wpt lat="37.40287" lon="-122.02662"><time>2026-01-01T12:24:40Z</time></wpt>
    <wpt lat="37.40272" lon="-122.02688"><time>2026-01-01T12:24:43Z</time></wpt>
    <wpt lat="37.40277" lon="-122.02719"><time>2026-01-01T12:24:45Z</time></wpt>
    <wpt lat="37.40218" lon="-122.03019"><time>2026-01-01T12:25:05Z</time></wpt>
    <wpt lat="37.4022211" lon="-122.0303808"><time>2026-01-01T12:25:07Z</time></wpt>
    <wpt lat="37.3961" lon="-122.04443"><time>2026-01-01T12:26:54Z</time></wpt>
    <wpt lat="37.38659" lon="-122.05896"><time>2026-01-01T12:29:00Z</time></wpt>
    <wpt lat="37.38621" lon="-122.0598"><time>2026-01-01T12:29:07Z</time></wpt>
    <wpt lat="37.38594" lon="-122.06082"><time>2026-01-01T12:29:13Z</time></wpt>
    <wpt lat="37.38574" lon="-122.06393"><time>2026-01-01T12:29:35Z</time></wpt>
    <wpt lat="37.38543" lon="-122.06543"><time>2026-01-01T12:29:45Z</time></wpt>
    <wpt lat="37.38502" lon="-122.06649"><time>2026-01-01T12:29:53Z</time></wpt>
    <wpt lat="37.38293" lon="-122.07044"><time>2026-01-01T12:30:25Z</time></wpt>
    <wpt lat="37.38199" lon="-122.07155"><time>2026-01-01T12:30:36Z</time></wpt>
    <wpt lat="37.37487" lon="-122.07725"><time>2026-01-01T12:31:47Z</time></wpt>
    <wpt lat="37.37422" lon="-122.07764"><time>2026-01-01T12:31:53Z</time></wpt>
    <wpt lat="37.37345" lon="-122.07775"><time>2026-01-01T12:31:59Z</time></wpt>
    <wpt lat="37.37365" lon="-122.08671"><time>2026-01-01T12:33:00Z</time></wpt>
    <wpt lat="37.37331" lon="-122.08777"><time>2026-01-01T12:33:07Z</time></wpt>
    <wpt lat="37.37339" lon="-122.09533"><time>2026-01-01T12:33:58Z</time></wpt>
    <wpt lat="37.37377" lon="-122.0961"><time>2026-01-01T12:34:04Z</time></wpt>
    <wpt lat="37.37373" lon="-122.10635"><time>2026-01-01T12:35:12Z</time></wpt>
    <wpt lat="37.3740937" lon="-122.1075898"><time>2026-01-01T12:35:21Z</time></wpt>
    <wpt lat="37.37046" lon="-122.11074"><time>2026-01-01T12:35:58Z</time></wpt>
    <wpt lat="37.38105" lon="-122.12117"><time>2026-01-01T12:37:52Z</time></wpt>
    <wpt lat="37.38132" lon="-122.12166"><time>2026-01-01T12:37:56Z</time></wpt>
    <wpt lat="37.38133" lon="-122.1231"><time>2026-01-01T12:38:05Z</time></wpt>
    <wpt lat="37.38117" lon="-122.12352"><time>2026-01-01T12:38:09Z</time></wpt>
    <wpt lat="37.38044" lon="-122.12454"><time>2026-01-01T12:38:18Z</time></wpt>
    <wpt lat="37.38115" lon="-122.12629"><time>2026-01-01T12:38:31Z</time></wpt>
    <wpt lat="37.38171" lon="-122.12639"><time>2026-01-01T12:38:36Z</time></wpt>
    <wpt lat="37.38187" lon="-122.12666"><time>2026-01-01T12:38:38Z</time></wpt>
    <wpt lat="37.3819" lon="-122.12815"><time>2026-01-01T12:38:48Z</time></wpt>
    <wpt lat="37.3823" lon="-122.12964"><time>2026-01-01T12:38:59Z</time></wpt>
    <wpt lat="37.3825769" lon="-122.1359468"><time>2026-01-01T12:39:40Z</time></wpt>
    <wpt lat="37.3836313" lon="-122.1357671"><time>2026-01-01T12:39:50Z</time></wpt>
    <wpt lat="37.38362" lon="-122.13617"><time>2026-01-01T12:39:52Z</time></wpt>
    <wpt lat="37.3834" lon="-122.13682"><time>2026-01-01T12:39:57Z</time></wpt>
    <wpt lat="37.3835546" lon="-122.1371287"><name>L1 return</name><time>2026-01-01T12:40:00Z</time></wpt>

</gpx>
